LUCH 5V (SDCM/PRN 141)  
1 39727U 14023A   22365.56646687 -.00000263  00000+0  00000+0 0  9994
2 39727   1.9750  77.1911 0002828 221.3182 100.0800  1.00274609549834
GPS BIIF-6  (PRN 06)    
1 39741U 14026A   22364.06776524 -.00000085  00000+0  00000+0 0  9993
2 39741  56.6390  20.6223 0029967 305.9915  53.7716  2.00574728 63165
COSMOS 2500 (755)       
1 40001U 14032A   22363.23035368 -.00000052  00000+0  00000+0 0  9997
2 40001  65.7611 356.4640 0007785 221.3940 322.8961  2.13102451 66472
GPS BIIF-7  (PRN 09)    
1 40105U 14045A   22363.65967719  .00000054  00000+0  00000+0 0  9997
2 40105  54.7404 139.0085 0024084 113.8001 246.4260  2.00560272 60693
GSAT0201 (PRN E18)      
1 40128U 14050A   22364.94365906 -.00000118  00000+0  00000+0 0  9993
2 40128  50.1438 324.4498 1613935 131.1543 243.9611  1.85519353 56803
GSAT0202 (PRN E14)      
1 40129U 14050B   22365.20395760 -.00000119  00000+0  00000+0 0  9996
2 40129  50.1656 323.5053 1611244 131.9749 242.9446  1.85520011 57001
IRNSS-1C                
1 40269U 14061A   22364.66451625 -.00000157  00000+0  00000+0 0  9997
2 40269   3.3890 120.9692 0016831   9.2522 291.1389  1.00271983 30146
GPS BIIF-8  (PRN 03)    
1 40294U 14068A   22363.52957308 -.00000058  00000+0  00000+0 0  9995
2 40294  55.9691  80.2407 0042191  57.8699 302.5702  2.00554850 59820
COSMOS 2501 (702K)      
1 40315U 14075A   22365.35466262  .00000045  00000+0  00000+0 0  9999
2 40315  63.6614 234.2831 0017168 206.0477 336.8742  2.13101234 62922
GPS BIIF-9  (PRN 26)    
1 40534U 15013A   22364.16574017 -.00000021  00000+0  00000+0 0  9996
2 40534  53.5873 256.5840 0076039  22.6665 337.7286  2.00569848 56459
GSAT0203 (PRN E26)      
1 40544U 15017A   22362.19128606 -.00000081  00000+0  00000+0 0  9997
2 40544  56.8528  16.0818 0005125 261.9436  98.0349  1.70475824 47609
GSAT0204 (PRN E22)      
1 40545U 15017B   22364.79083182 -.00000085  00000+0  00000+0 0  9999
2 40545  56.8586  16.0239 0004748 252.0341 107.9499  1.70475527 48312
IRNSS-1D                
1 40547U 15018A   22364.62862721 -.00000279  00000+0  00000+0 0  9993
2 40547  28.5714 261.8463 0018581 180.1184 355.2285  1.00269178 28560
BEIDOU 17 (C31)         
1 40549U 15019A   22364.60104600 -.00000178  00000+0  00000+0 0  9997
2 40549  51.5465 310.4721 0035937 200.5905 256.5310  1.00254337 28407
GPS BIIF-10 (PRN 08)    
1 40730U 15033A   22364.32430356 -.00000085  00000+0  00000+0 0  9991
2 40730  55.0506 318.7754 0080302   8.9410 351.1972  2.00567907 54640
BEIDOU 18 (C57)         
1 40748U 15037A   22364.18591021 -.00000090  00000+0  00000+0 0  9991
2 40748  55.7901 345.1481 0003621 332.8973  21.1217  1.86233363 50559
BEIDOU 19 (C58)         
1 40749U 15037B   22365.20240272 -.00000095  00000+0  00000+0 0  9990
2 40749  55.7932 345.1044 0006672 309.3849 140.2011  1.86232897 50577
GSAT0205 (PRN E24)      
1 40889U 15045A   22363.97226975 -.00000008  00000+0  00000+0 0  9994
2 40889  55.5013 256.5629 0005964  18.7410 341.3464  1.70472901 45443
GSAT0206 (PRN E30)      
1 40890U 15045B   22362.43324639 -.00000004  00000+0  00000+0 0  9998
2 40890  55.5008 256.6013 0004216  12.3249 347.7567  1.70473010 45442
BEIDOU 20 (C18)         
1 40938U 15053A   22365.20728117 -.00000143  00000+0  00000+0 0  9991
2 40938  51.1934 273.6077 0043326 194.6222 159.5804  1.00293391 26676
GPS BIIF-11 (PRN 10)    
1 41019U 15062A   22364.37732189 -.00000067  00000+0  00000+0 0  9998
2 41019  55.9563  80.0535 0084974 219.6425 139.7630  2.00562363 52465
GSAT-15 (GAGAN/PRN 139) 
1 41028U 15065A   22365.02529213 -.00000251  00000+0  00000+0 0  9991
2 41028   0.0194  44.3514 0001873 207.9590 309.7297  1.00268256 26187
GSAT0209 (PRN E09)      
1 41174U 15079A   22364.95240418  .00000027  00000+0  00000+0 0  9996
2 41174  55.2159 136.0003 0001937 319.5135  40.4321  1.70474647 43805
GSAT0208 (PRN E08)      
1 41175U 15079B   22364.58534280  .00000030  00000+0  00000+0 0  9993
2 41175  55.2141 136.0089 0001185 324.4359  35.5170  1.70474564 43792
IRNSS-1E                
1 41241U 16003A   22363.85005954 -.00000309  00000+0  00000+0 0  9995
2 41241  30.4168  81.5955 0022171 186.6389 247.7346  1.00279695 25394
GPS BIIF-12 (PRN 32)    
1 41328U 16007A   22363.96548614  .00000054  00000+0  00000+0 0  9998
2 41328  54.9524 139.7146 0065699 230.3997 128.9931  2.00561433 50460
COSMOS 2514 (751)       
1 41330U 16008A   22364.15773950 -.00000054  00000+0  00000+0 0  9998
2 41330  65.5593 356.0749 0011329 225.2472 134.6785  2.13102641 53664
IRNSS-1F                
1 41384U 16015A   22365.26160667  .00000167  00000+0  00000+0 0  9997
2 41384   2.4698 143.1954 0022135 178.9055 264.1079  1.00271537 24984
BEIDOU IGSO-6 (C13)     
1 41434U 16021A   22364.59545951 -.00000175  00000+0  00000+0 0  9998
2 41434  58.3861  50.8135 0049407 222.2442 135.5074  1.00287617 24792
IRNSS-1G                
1 41469U 16027A   22365.24764221 -.00000327  00000+0  00000+0 0  9997
2 41469   2.3811 145.5318 0002819 254.5794 278.1840  1.00275265 24491
GSAT0211 (PRN E02)      
1 41549U 16030A   22362.94552081 -.00000006  00000+0  00000+0 0  9997
2 41549  55.6469 256.5407 0004711 357.3786   2.6879  1.70472855 41085
GSAT0210 (PRN E01)      
1 41550U 16030B   22363.23753959 -.00000007  00000+0  00000+0 0  9990
2 41550  55.6466 256.5340 0003117 326.9567  33.0916  1.70474443 41083
COSMOS 2516 (753)       
1 41554U 16032A   22364.27936127  .00000034  00000+0  00000+0 0  9990
2 41554  63.8876 234.6520 0013964 212.9404 147.0464  2.13106375 51275
BEIDOU-2 G7 (C03)       
1 41586U 16037A   22365.24380696 -.00000348  00000+0  00000+0 0  9991
2 41586   1.8202  70.0698 0007605 345.9963 241.8810  1.00268937 24103
E 117 W B (WAAS/PRN 131)
1 41589U 16038B   22364.69641865 -.00000006  00000+0  00000+0 0  9992
2 41589   0.0087 164.4181 0000024  57.5665  10.8390  1.00271362 24020
GSAT0207 (PRN E07)      
1 41859U 16069A   22364.07328353  .00000033  00000+0  00000+0 0  9991
2 41859  54.8770 136.1575 0002046 286.5291  73.4097  1.70474528 37832
GSAT0212 (PRN E03)      
1 41860U 16069B   22363.34049628  .00000036  00000+0  00000+0 0  9990
2 41860  54.8745 136.1750 0001052   7.5765 352.3863  1.70473246 38077
GSAT0213 (PRN E04)      
1 41861U 16069C   22364.87889271  .00000027  00000+0  00000+0 0  9996
2 41861  54.8771 136.1379 0002494 247.1417 112.7921  1.70473321 38090
GSAT0214 (PRN E05)      
1 41862U 16069D   22365.02606887  .00000026  00000+0  00000+0 0  9994
2 41862  54.8753 136.1280 0001567 238.9968 120.9476  1.70473320 38096
SES-15 (WAAS/PRN 133)   
1 42709U 17026A   22364.98092517  .00000066  00000+0  00000+0 0  9996
2 42709   0.0160   1.7794 0000925 213.9301 107.6618  1.00273572 21508
QZS-2 (QZSS/PRN 184)    
1 42738U 17028A   22364.56924424 -.00000185  00000+0  00000+0 0  9998
2 42738  41.4469 261.3912 0756224 269.5905 273.8328  1.00282300 20450
QZS-3 (QZSS/PRN 189)    
1 42917U 17048A   22365.12271539 -.00000342  00000+0  00000+0 0  9999
2 42917   0.0582 187.8098 0002616  98.6731 344.1864  1.00267218 19692
COSMOS 2522 (752)       
1 42939U 17055A   22364.90924505  .00000039  00000+0  00000+0 0  9996
2 42939  64.1209 235.0829 0006024 243.0702  93.7254  2.13102115 41034
QZS-4 (QZSS/PRN 185)    
1 42965U 17062A   22365.32225544 -.00000362  00000+0  00000+0 0  9997
2 42965  40.7188 359.5917 0750845 271.8019  79.7442  1.00251067 19131
BEIDOU-3 M1 (C19)       
1 43001U 17069A   22364.72100484 -.00000031  00000+0  00000+0 0  9997
2 43001  55.6748 105.1091 0008212 285.2360 150.2232  1.86231533 35051
BEIDOU-3 M2 (C20)       
1 43002U 17069B   22364.54632808 -.00000029  00000+0  00000+0 0  9995
2 43002  55.6750 105.1514 0006123 312.1222  49.0000  1.86231296 35044
GSAT0215 (PRN E21)      
1 43055U 17079A   22363.16985713 -.00000007  00000+0  00000+0 0  9993
2 43055  55.6231 256.3640 0002605 318.0632  41.9851  1.70473781 31407
GSAT0216 (PRN E25)      
1 43056U 17079B   22362.87537853 -.00000006  00000+0  00000+0 0  9998
2 43056  55.6232 256.3721 0003832 311.0280  49.0084  1.70473811 31416
GSAT0217 (PRN E27)      
1 43057U 17079C   22364.85542397 -.00000006  00000+0  00000+0 0  9998
2 43057  55.6200 256.3168 0003926 328.6663  31.3752  1.70473810 31437
GSAT0218 (PRN E31)      
1 43058U 17079D   22363.90229763 -.00000008  00000+0  00000+0 0  9995
2 43058  55.6211 256.3405 0003594 311.5179  48.5172  1.70473795 31447
BEIDOU-3 M3 (C27)       
1 43107U 18003A   22364.03486699 -.00000091  00000+0  00000+0 0  9998
2 43107  55.2441 345.9829 0003524  42.8643 141.7950  1.86232040 33794
BEIDOU-3 M4 (C28)       
1 43108U 18003B   22364.23174595 -.00000092  00000+0  00000+0 0  9991
2 43108  55.2377 345.9648 0004457 263.6778  95.7690  1.86230561 33795
BEIDOU-3 M5 (C21)       
1 43207U 18018A   22364.67340707 -.00000031  00000+0  00000+0 0  9998
2 43207  55.6334 105.2186 0003301 348.6003   9.4766  1.86231453 33188
BEIDOU-3 M6 (C22)       
1 43208U 18018B   22364.20594485 -.00000024  00000+0  00000+0 0  9994
2 43208  55.6326 105.2389 0006161 296.6808  63.2481  1.86231623 33188
BEIDOU-3 M7 (C29)       
1 43245U 18029A   22364.71022602 -.00000094  00000+0  00000+0 0  9997
2 43245  55.1482 343.7149 0001901 279.7277 268.3276  1.86232650 32347
BEIDOU-3 M8 (C30)       
1 43246U 18029B   22365.16785719 -.00000096  00000+0  10000-3 0  9990
2 43246  55.1440 343.7290 0004580 339.1683 202.4018  1.86232851 32343
IRNSS-1I                
1 43286U 18035A   22364.83104760  .00000082  00000+0  00000+0 0  9994
2 43286  28.6922  94.1751 0022789 183.8936 175.4387  1.00274541 17396
COSMOS 2527 (756)       
1 43508U 18053A   22365.36235943 -.00000008  00000+0  00000+0 0  9997
2 43508  65.0193 116.2361 0008144 218.4756 137.9315  2.13102517 35331
BEIDOU IGSO-7 (C16)     
1 43539U 18057A   22364.88582816 -.00000050  00000+0  00000+0 0  9992
2 43539  55.0939 173.9923 0051596 224.9850 130.5132  1.00250187 16474
GSAT0221 (PRN E15)      
1 43564U 18060A   22364.38732470 -.00000084  00000+0  00000+0 0  9999
2 43564  57.2339  15.8871 0005585 276.7923  83.1798  1.70475798 27601
